start=new Date('2023-05-21T00:00:00.000Z').valueOf();
sats=[{"ELEMENT_SET_NO":"999","OBJECT_NAME":"STARLINK-5071","FILE":"3913175","SITE":"AFWTR","GP_ID":"232211963","MEAN_MOTION":"15.69934617","CENTER_NAME":"EARTH","RCS_SIZE":"LARGE","DECAY_DATE":null,"ECCENTRICITY":"0.00033090","INCLINATION":"69.9967","MEAN_MOTION_DOT":"0.00001992","ARG_OF_PERICENTER":"252.4840","OBJECT_TYPE":"PAYLOAD","PERIAPSIS":"356.857","REF_FRAME":"TEME","SEMIMAJOR_AXIS":"6737.221","REV_AT_EPOCH":"1820","MEAN_ANOMALY":"107.5994","TIME_SYSTEM":"UTC","RA_OF_ASC_NODE":"144.0822","LAUNCH_DATE":"2023-01-31","APOAPSIS":"361.315","NORAD_CAT_ID":"55402","COUNTRY_CODE":"US","EPHEMERIS_TYPE":"0","PERIOD":"91.724","OBJECT_ID":"2023-014M","EPOCH":"2023-05-20T09:10:30.873792","TLE_LINE2":"2 55402  69.9967 144.0822 0003309 252.4840 107.5994 15.69934617 18202","MEAN_ELEMENT_THEORY":"SGP4","CLASSIFICATION_TYPE":"U","TLE_LINE1":"1 55402U 23014M   23140.38230178  .00001992  00000-0  18327-4 0  9994","BSTAR":"0.00001832700000","MEAN_MOTION_DDOT":"0.0000000000000"},{"TIME_SYSTEM":"UTC","RA_OF_ASC_NODE":"144.0836","REV_AT_EPOCH":"1820","SEMIMAJOR_AXIS":"6737.218","MEAN_ANOMALY":"97.7095","REF_FRAME":"TEME","NORAD_CAT_ID":"55403","APOAPSIS":"361.355","COUNTRY_CODE":"US","LAUNCH_DATE":"2023-01-31","TLE_LINE2":"2 55403  69.9974 144.0836 0003372 262.3718  97.7095 15.69935705 18201","EPOCH":"2023-05-20T09:10:03.426240","OBJECT_ID":"2023-014N","PERIOD":"91.724","EPHEMERIS_TYPE":"0","MEAN_MOTION_DDOT":"0.0000000000000","TLE_LINE1":"1 55403U 23014N   23140.38198410  .00001643  00000-0  15422-4 0  9993","BSTAR":"0.00001542200000","CLASSIFICATION_TYPE":"U","MEAN_ELEMENT_THEORY":"SGP4","OBJECT_NAME":"STARLINK-5597","ELEMENT_SET_NO":"999","ECCENTRICITY":"0.00033720","INCLINATION":"69.9974","CENTER_NAME":"EARTH","RCS_SIZE":"LARGE","DECAY_DATE":null,"GP_ID":"232212710","MEAN_MOTION":"15.69935705","FILE":"3913175","SITE":"AFWTR","ARG_OF_PERICENTER":"262.3718","MEAN_MOTION_DOT":"0.00001643","PERIAPSIS":"356.811","OBJECT_TYPE":"PAYLOAD"},{"TLE_LINE2":"2 55404  69.9983 144.0859 0003270 249.2778 110.8067 15.69933040 18200","EPOCH":"2023-05-20T09:10:49.081728","PERIOD":"91.724","OBJECT_ID":"2023-014P","EPHEMERIS_TYPE":"0","MEAN_MOTION_DDOT":"0.0000000000000","TLE_LINE1":"1 55404U 23014P   23140.38251252  .00001289  00000-0  12480-4 0  9995","BSTAR":"0.00001248000000","CLASSIFICATION_TYPE":"U","MEAN_ELEMENT_THEORY":"SGP4","TIME_SYSTEM":"UTC","RA_OF_ASC_NODE":"144.0859","SEMIMAJOR_AXIS":"6737.226","REV_AT_EPOCH":"1820","MEAN_ANOMALY":"110.8067","REF_FRAME":"TEME","APOAPSIS":"361.294","NORAD_CAT_ID":"55404","COUNTRY_CODE":"US","LAUNCH_DATE":"2023-01-31","ARG_OF_PERICENTER":"249.2778","MEAN_MOTION_DOT":"0.00001289","OBJECT_TYPE":"PAYLOAD","PERIAPSIS":"356.887","OBJECT_NAME":"STARLINK-5607","ELEMENT_SET_NO":"999","ECCENTRICITY":"0.00032700","INCLINATION":"69.9983","RCS_SIZE":"LARGE","CENTER_NAME":"EARTH","DECAY_DATE":null,"GP_ID":"232212959","MEAN_MOTION":"15.69933040","FILE":"3913175","SITE":"AFWTR"},{"ELEMENT_SET_NO":"999","OBJECT_NAME":"STARLINK-5623","SITE":"AFWTR","FILE":"3913175","MEAN_MOTION":"15.69935764","GP_ID":"232211214","DECAY_DATE":null,"CENTER_NAME":"EARTH","RCS_SIZE":"LARGE","ECCENTRICITY":"0.00031690","INCLINATION":"69.9975","MEAN_MOTION_DOT":"0.00001987","ARG_OF_PERICENTER":"260.6732","OBJECT_TYPE":"PAYLOAD","PERIAPSIS":"356.948","REF_FRAME":"TEME","MEAN_ANOMALY":"99.4106","SEMIMAJOR_AXIS":"6737.218","REV_AT_EPOCH":"1820","RA_OF_ASC_NODE":"144.0849","TIME_SYSTEM":"UTC","LAUNCH_DATE":"2023-01-31","COUNTRY_CODE":"US","APOAPSIS":"361.218","NORAD_CAT_ID":"55405","EPHEMERIS_TYPE":"0","OBJECT_ID":"2023-014Q","PERIOD":"91.723","EPOCH":"2023-05-20T09:10:21.789696","TLE_LINE2":"2 55405  69.9975 144.0849 0003169 260.6732  99.4106 15.69935764 18206","MEAN_ELEMENT_THEORY":"SGP4","CLASSIFICATION_TYPE":"U","TLE_LINE1":"1 55405U 23014Q   23140.38219664  .00001987  00000-0  18280-4 0  9996","MEAN_MOTION_DDOT":"0.0000000000000","BSTAR":"0.00001828000000"},{"MEAN_ELEMENT_THEORY":"SGP4","CLASSIFICATION_TYPE":"U","TLE_LINE1":"1 55406U 23014R   23140.38272753  .00001197  00000-0  11720-4 0  9990","MEAN_MOTION_DDOT":"0.0000000000000","BSTAR":"0.00001172000000","EPHEMERIS_TYPE":"0","PERIOD":"91.724","OBJECT_ID":"2023-014R","EPOCH":"2023-05-20T09:11:07.658592","TLE_LINE2":"2 55406  69.9989 144.0873 0002929 260.9196  99.1668 15.69930504 18206","LAUNCH_DATE":"2023-01-31","COUNTRY_CODE":"US","APOAPSIS":"361.071","NORAD_CAT_ID":"55406","REF_FRAME":"TEME","MEAN_ANOMALY":"99.1668","SEMIMAJOR_AXIS":"6737.233","REV_AT_EPOCH":"1820","RA_OF_ASC_NODE":"144.0873","TIME_SYSTEM":"UTC","OBJECT_TYPE":"PAYLOAD","PERIAPSIS":"357.124","MEAN_MOTION_DOT":"0.00001197","ARG_OF_PERICENTER":"260.9196","SITE":"AFWTR","FILE":"3913175","GP_ID":"232211464","MEAN_MOTION":"15.69930504","DECAY_DATE":null,"CENTER_NAME":"EARTH","RCS_SIZE":"LARGE","ECCENTRICITY":"0.00029290","INCLINATION":"69.9989","ELEMENT_SET_NO":"999","OBJECT_NAME":"STARLINK-5630"},{"LAUNCH_DATE":"2023-01-31","COUNTRY_CODE":"US","NORAD_CAT_ID":"55407","APOAPSIS":"361.332","RA_OF_ASC_NODE":"144.0867","TIME_SYSTEM":"UTC","REF_FRAME":"TEME","MEAN_ANOMALY":"94.7437","SEMIMAJOR_AXIS":"6737.213","REV_AT_EPOCH":"1820","TLE_LINE1":"1 55407U 23014S   23140.38240669  .00001983  00000-0  18249-4 0  9998","MEAN_MOTION_DDOT":"0.0000000000000","BSTAR":"0.00001824900000","MEAN_ELEMENT_THEORY":"SGP4","CLASSIFICATION_TYPE":"U","EPOCH":"2023-05-20T09:10:39.938016","TLE_LINE2":"2 55407  69.9976 144.0867 0003346 265.3377  94.7437 15.69937532 18203","EPHEMERIS_TYPE":"0","PERIOD":"91.723","OBJECT_ID":"2023-014S","DECAY_DATE":null,"RCS_SIZE":"LARGE","CENTER_NAME":"EARTH","INCLINATION":"69.9976","ECCENTRICITY":"0.00033460","SITE":"AFWTR","FILE":"3913175","MEAN_MOTION":"15.69937532","GP_ID":"232212211","OBJECT_NAME":"STARLINK-5019","ELEMENT_SET_NO":"999","OBJECT_TYPE":"PAYLOAD","PERIAPSIS":"356.823","ARG_OF_PERICENTER":"265.3377","MEAN_MOTION_DOT":"0.00001983"},{"OBJECT_TYPE":"PAYLOAD","PERIAPSIS":"356.831","ARG_OF_PERICENTER":"267.0304","MEAN_MOTION_DOT":"0.00003703","CENTER_NAME":"EARTH","RCS_SIZE":"LARGE","DECAY_DATE":null,"INCLINATION":"69.9973","ECCENTRICITY":"0.00033690","FILE":"3913175","SITE":"AFWTR","GP_ID":"232212460","MEAN_MOTION":"15.69929461","OBJECT_NAME":"STARLINK-5092","ELEMENT_SET_NO":"999","MEAN_MOTION_DDOT":"0.0000000000000","TLE_LINE1":"1 55408U 23014T   23140.38283110  .00003703  00000-0  32543-4 0  9992","BSTAR":"0.00003254300000","MEAN_ELEMENT_THEORY":"SGP4","CLASSIFICATION_TYPE":"U","EPOCH":"2023-05-20T09:11:16.607040","TLE_LINE2":"2 55408  69.9973 144.0868 0003369 267.0304  93.0506 15.69929461 18207","EPHEMERIS_TYPE":"0","PERIOD":"91.724","OBJECT_ID":"2023-014T","LAUNCH_DATE":"2023-01-31","NORAD_CAT_ID":"55408","APOAPSIS":"361.371","COUNTRY_CODE":"US","TIME_SYSTEM":"UTC","RA_OF_ASC_NODE":"144.0868","REF_FRAME":"TEME","REV_AT_EPOCH":"1820","SEMIMAJOR_AXIS":"6737.236","MEAN_ANOMALY":"93.0506"},{"LAUNCH_DATE":"2023-01-31","COUNTRY_CODE":"US","APOAPSIS":"361.360","NORAD_CAT_ID":"55409","RA_OF_ASC_NODE":"144.0864","TIME_SYSTEM":"UTC","REF_FRAME":"TEME","MEAN_ANOMALY":"95.0835","SEMIMAJOR_AXIS":"6737.221","REV_AT_EPOCH":"1820","BSTAR":"0.00001832100000","TLE_LINE1":"1 55409U 23014U   23140.38261767  .00001992  00000-0  18321-4 0  9993","MEAN_MOTION_DDOT":"0.0000000000000","MEAN_ELEMENT_THEORY":"SGP4","CLASSIFICATION_TYPE":"U","EPOCH":"2023-05-20T09:10:58.166688","TLE_LINE2":"2 55409  69.9970 144.0864 0003374 264.9975  95.0835 15.69934491 18203","EPHEMERIS_TYPE":"0","OBJECT_ID":"2023-014U","PERIOD":"91.724","DECAY_DATE":null,"RCS_SIZE":"LARGE","CENTER_NAME":"EARTH","INCLINATION":"69.9970","ECCENTRICITY":"0.00033740","SITE":"AFWTR","FILE":"3913175","MEAN_MOTION":"15.69934491","GP_ID":"232211714","OBJECT_NAME":"STARLINK-5047","ELEMENT_SET_NO":"999","OBJECT_TYPE":"PAYLOAD","PERIAPSIS":"356.813","ARG_OF_PERICENTER":"264.9975","MEAN_MOTION_DOT":"0.00001992"},{"GP_ID":"232211964","MEAN_MOTION":"15.16571365","FILE":"3913175","SITE":"AFWTR","ECCENTRICITY":"0.00032860","INCLINATION":"69.9974","RCS_SIZE":"LARGE","CENTER_NAME":"EARTH","DECAY_DATE":null,"ELEMENT_SET_NO":"999","OBJECT_NAME":"STARLINK-5633","OBJECT_TYPE":"PAYLOAD","PERIAPSIS":"513.949","MEAN_MOTION_DOT":"-0.00879720","ARG_OF_PERICENTER":"270.3691","APOAPSIS":"518.480","NORAD_CAT_ID":"55410","COUNTRY_CODE":"US","LAUNCH_DATE":"2023-01-31","SEMIMAJOR_AXIS":"6894.349","REV_AT_EPOCH":"130","MEAN_ANOMALY":"168.0307","REF_FRAME":"TEME","TIME_SYSTEM":"UTC","RA_OF_ASC_NODE":"145.9487","CLASSIFICATION_TYPE":"U","MEAN_ELEMENT_THEORY":"SGP4","TLE_LINE1":"1 55410U 23014V   23140.91668981 -.00879720  00000-0 -48376-1 0  9997","BSTAR":"-0.04837600000000","MEAN_MOTION_DDOT":"0.0000000000000","OBJECT_ID":"2023-014V","PERIOD":"94.951","EPHEMERIS_TYPE":"0","TLE_LINE2":"2 55410  69.9974 145.9487 0003286 270.3691 168.0307 15.16571365  1305","EPOCH":"2023-05-20T22:00:01.999584"},{"APOAPSIS":"361.239","NORAD_CAT_ID":"55411","COUNTRY_CODE":"US","LAUNCH_DATE":"2023-01-31","SEMIMAJOR_AXIS":"6737.229","REV_AT_EPOCH":"1820","MEAN_ANOMALY":"99.4216","REF_FRAME":"TEME","TIME_SYSTEM":"UTC","RA_OF_ASC_NODE":"144.0873","CLASSIFICATION_TYPE":"U","MEAN_ELEMENT_THEORY":"SGP4","TLE_LINE1":"1 55411U 23014W   23140.38293857  .00005465  00000-0  47173-4 0  9997","MEAN_MOTION_DDOT":"0.0000000000000","BSTAR":"0.00004717300000","PERIOD":"91.724","OBJECT_ID":"2023-014W","EPHEMERIS_TYPE":"0","TLE_LINE2":"2 55411  69.9990 144.0873 0003184 260.6619  99.4216 15.69931789 18203","EPOCH":"2023-05-20T09:11:25.892448","MEAN_MOTION":"15.69931789","GP_ID":"232212711","FILE":"3913175","SITE":"AFWTR","ECCENTRICITY":"0.00031840","INCLINATION":"69.9990","RCS_SIZE":"LARGE","CENTER_NAME":"EARTH","DECAY_DATE":null,"ELEMENT_SET_NO":"999","OBJECT_NAME":"STARLINK-5605","OBJECT_TYPE":"PAYLOAD","PERIAPSIS":"356.949","MEAN_MOTION_DOT":"0.00005465","ARG_OF_PERICENTER":"260.6619"}];
